<?xml version="1.0" encoding="UTF-8" standalone="yes"?>
<gpx
 version="1.1"
 creator="Generated by MapOut iPhone App. See https://mapout.app"
 xmlns="http://www.topografix.com/GPX/1/1"
 xmlns:xsi="http://www.w3.org/2001/XMLSchema-instance"
 xmlns:gpxx="http://www.garmin.com/xmlschemas/GpxExtensions/v3"
 xmlns:mapout="https://mapout.app/xmlschemas/MapOutExtensions"
 xsi:schemaLocation="http://www.topografix.com/GPX/1/1 https://www.topografix.com/GPX/1/1/gpx.xsd http://www.garmin.com/xmlschemas/GpxExtensions/v3 https://www8.garmin.com/xmlschemas/GpxExtensionsv3.xsd https://mapout.app/xmlschemas/MapOutExtensions https://mapout.app/xmlschemas/MapOutExtensions.xsd">
  <metadata>
    <name>Gezeichnet 12.07.2026, 16:29</name>
    <author><name>iPhone</name></author>
    <time>2026-07-12T14:29:59Z</time>
    <bounds minlat="49.7684762172228" minlon="7.7028313505806532" maxlat="49.76944882733164" maxlon="7.7034359798194103"/>
  </metadata>
  <trk>
    <trkseg>
      <trkpt lat="49.76944882733164" lon="7.7034359798194103">
        <ele>142</ele>
      </trkpt>
      <trkpt lat="49.76932958230022" lon="7.7033702078962509">
        <ele>142</ele>
      </trkpt>
      <trkpt lat="49.76921514400154" lon="7.70332157161931">
        <ele>142</ele>
      </trkpt>
      <trkpt lat="49.7688880411978" lon="7.7031327484264818">
        <ele>143</ele>
      </trkpt>
      <trkpt lat="49.76860480640855" lon="7.7029420179286747">
        <ele>143</ele>
      </trkpt>
      <trkpt lat="49.7684762172228" lon="7.7028313505806532">
        <ele>143</ele>
      </trkpt>
    </trkseg>
  </trk>
</gpx>