<?xml version="1.0" encoding="UTF-8" standalone="yes"?>
<gpx
 version="1.1"
 creator="Generated by MapOut iPhone App. See https://mapout.app"
 xmlns="http://www.topografix.com/GPX/1/1"
 xmlns:xsi="http://www.w3.org/2001/XMLSchema-instance"
 xmlns:gpxx="http://www.garmin.com/xmlschemas/GpxExtensions/v3"
 xmlns:mapout="https://mapout.app/xmlschemas/MapOutExtensions"
 xsi:schemaLocation="http://www.topografix.com/GPX/1/1 https://www.topografix.com/GPX/1/1/gpx.xsd http://www.garmin.com/xmlschemas/GpxExtensions/v3 https://www8.garmin.com/xmlschemas/GpxExtensionsv3.xsd https://mapout.app/xmlschemas/MapOutExtensions https://mapout.app/xmlschemas/MapOutExtensions.xsd">
  <metadata>
    <name>Gezeichnet 12.07.2026, 16:14</name>
    <author><name>iPhone</name></author>
    <time>2026-07-12T14:14:43Z</time>
    <bounds minlat="49.7683311081442" minlon="7.7016288384512759" maxlat="49.76971095337388" maxlon="7.703469557304234"/>
  </metadata>
  <trk>
    <trkseg>
      <trkpt lat="49.76950970358461" lon="7.703469557304234">
        <ele>142</ele>
      </trkpt>
      <trkpt lat="49.76932958230022" lon="7.7033702078962509">
        <ele>142</ele>
      </trkpt>
      <trkpt lat="49.76921514400154" lon="7.70332157161931">
        <ele>142</ele>
      </trkpt>
      <trkpt lat="49.7688880411978" lon="7.7031327484264818">
        <ele>143</ele>
      </trkpt>
      <trkpt lat="49.76860480640855" lon="7.7029420179286747">
        <ele>143</ele>
      </trkpt>
      <trkpt lat="49.7683311081442" lon="7.7027064657638835">
        <ele>143</ele>
      </trkpt>
      <trkpt lat="49.7683311081442" lon="7.7027064657638835">
        <ele>143</ele>
      </trkpt>
      <trkpt lat="49.76853805073432" lon="7.7026053786000457">
        <ele>143</ele>
      </trkpt>
      <trkpt lat="49.76884894144575" lon="7.7023641045203206">
        <ele>143</ele>
      </trkpt>
      <trkpt lat="49.76903299637613" lon="7.7021943543772728">
        <ele>143</ele>
      </trkpt>
      <trkpt lat="49.76919034903682" lon="7.7020198359717797">
        <ele>143</ele>
      </trkpt>
      <trkpt lat="49.76951935914554" lon="7.7016288384512759">
        <ele>142</ele>
      </trkpt>
      <trkpt lat="49.76951935914554" lon="7.7016288384512759">
        <ele>142</ele>
      </trkpt>
      <trkpt lat="49.76971095337388" lon="7.7021229498822557">
        <ele>141</ele>
      </trkpt>
      <trkpt lat="49.76971008964335" lon="7.7021237840930841">
        <ele>141</ele>
      </trkpt>
      <trkpt lat="49.76959851230212" lon="7.7022315468243452">
        <ele>142</ele>
      </trkpt>
      <trkpt lat="49.76940587449934" lon="7.7030688537097163">
        <ele>142</ele>
      </trkpt>
      <trkpt lat="49.76932958230022" lon="7.7033702078962509">
        <ele>142</ele>
      </trkpt>
      <trkpt lat="49.76932958230022" lon="7.7033702078962509">
        <ele>142</ele>
      </trkpt>
      <trkpt lat="49.76947698401833" lon="7.7034515101891987">
        <ele>142</ele>
      </trkpt>
    </trkseg>
  </trk>
</gpx>