<?xml version="1.0" encoding="UTF-8" standalone="yes"?>
<gpx
 version="1.1"
 creator="Generated by MapOut iPhone App. See https://mapout.app"
 xmlns="http://www.topografix.com/GPX/1/1"
 xmlns:xsi="http://www.w3.org/2001/XMLSchema-instance"
 xmlns:gpxx="http://www.garmin.com/xmlschemas/GpxExtensions/v3"
 xmlns:mapout="https://mapout.app/xmlschemas/MapOutExtensions"
 xsi:schemaLocation="http://www.topografix.com/GPX/1/1 https://www.topografix.com/GPX/1/1/gpx.xsd http://www.garmin.com/xmlschemas/GpxExtensions/v3 https://www8.garmin.com/xmlschemas/GpxExtensionsv3.xsd https://mapout.app/xmlschemas/MapOutExtensions https://mapout.app/xmlschemas/MapOutExtensions.xsd">
  <metadata>
    <name>Gezeichnet 29.01.2026, 22:02</name>
    <author><name>iPhone</name></author>
    <time>2026-01-29T21:02:10Z</time>
    <bounds minlat="49.7683311081442" minlon="7.6961739462139978" maxlat="49.77952126645052" maxlon="7.7112178142285028"/>
  </metadata>
  <trk>
    <trkseg>
      <trkpt lat="49.76956173286397" lon="7.7035006390615237">
        <ele>141</ele>
      </trkpt>
      <trkpt lat="49.76954224680527" lon="7.7034875071524018">
        <ele>141</ele>
      </trkpt>
      <trkpt lat="49.76932958230022" lon="7.7033702078962509">
        <ele>142</ele>
      </trkpt>
      <trkpt lat="49.76921514400154" lon="7.70332157161931">
        <ele>142</ele>
      </trkpt>
      <trkpt lat="49.7688880411978" lon="7.7031327484264818">
        <ele>143</ele>
      </trkpt>
      <trkpt lat="49.76860480640855" lon="7.7029420179286747">
        <ele>143</ele>
      </trkpt>
      <trkpt lat="49.7683311081442" lon="7.7027064657638835">
        <ele>143</ele>
      </trkpt>
      <trkpt lat="49.7683311081442" lon="7.7027064657638835">
        <ele>143</ele>
      </trkpt>
      <trkpt lat="49.76853805073432" lon="7.7026053786000457">
        <ele>143</ele>
      </trkpt>
      <trkpt lat="49.76884894144575" lon="7.7023641045203206">
        <ele>143</ele>
      </trkpt>
      <trkpt lat="49.76903299637613" lon="7.7021943543772728">
        <ele>143</ele>
      </trkpt>
      <trkpt lat="49.76919034903682" lon="7.7020198359717797">
        <ele>143</ele>
      </trkpt>
      <trkpt lat="49.76951935914554" lon="7.7016288384512759">
        <ele>142</ele>
      </trkpt>
      <trkpt lat="49.76995422468054" lon="7.7010642761777683">
        <ele>140</ele>
      </trkpt>
      <trkpt lat="49.77005912645433" lon="7.7009698645813547">
        <ele>140</ele>
      </trkpt>
      <trkpt lat="49.7700963189014" lon="7.7009221819569031">
        <ele>140</ele>
      </trkpt>
      <trkpt lat="49.7700963189014" lon="7.7009221819569031">
        <ele>140</ele>
      </trkpt>
      <trkpt lat="49.77052736982645" lon="7.7004243753576276">
        <ele>138</ele>
      </trkpt>
      <trkpt lat="49.77069998092696" lon="7.7001850085828805">
        <ele>137</ele>
      </trkpt>
      <trkpt lat="49.77079916078582" lon="7.7000000000000082">
        <ele>136</ele>
      </trkpt>
      <trkpt lat="49.77079916078582" lon="7.6999999999999975">
        <ele>136</ele>
      </trkpt>
      <trkpt lat="49.77082300209805" lon="7.6999551783330134">
        <ele>136</ele>
      </trkpt>
      <trkpt lat="49.77133797444213" lon="7.6987201983597151">
        <ele>134</ele>
      </trkpt>
      <trkpt lat="49.77154300972727" lon="7.6983845126835755">
        <ele>133</ele>
      </trkpt>
      <trkpt lat="49.77188537097083" lon="7.698077436582107">
        <ele>134</ele>
      </trkpt>
      <trkpt lat="49.77216765210758" lon="7.6978542818996738">
        <ele>135</ele>
      </trkpt>
      <trkpt lat="49.77232691207325" lon="7.6977665458706825">
        <ele>135</ele>
      </trkpt>
      <trkpt lat="49.77256055693307" lon="7.6977407972534788">
        <ele>135</ele>
      </trkpt>
      <trkpt lat="49.77284283806982" lon="7.6977789433530397">
        <ele>134</ele>
      </trkpt>
      <trkpt lat="49.77299828342553" lon="7.6978228113675353">
        <ele>133</ele>
      </trkpt>
      <trkpt lat="49.77318615296587" lon="7.6979229448788837">
        <ele>132</ele>
      </trkpt>
      <trkpt lat="49.77332157161931" lon="7.6980307076101449">
        <ele>131</ele>
      </trkpt>
      <trkpt lat="49.77352183864201" lon="7.6983282471867227">
        <ele>132</ele>
      </trkpt>
      <trkpt lat="49.77445164981881" lon="7.6999485027655901">
        <ele>143</ele>
      </trkpt>
      <trkpt lat="49.77447358382607" lon="7.6999999999999975">
        <ele>143</ele>
      </trkpt>
      <trkpt lat="49.77447358382607" lon="7.7000000000000082">
        <ele>143</ele>
      </trkpt>
      <trkpt lat="49.774522220103" lon="7.7001144382986917">
        <ele>144</ele>
      </trkpt>
      <trkpt lat="49.77470246042343" lon="7.700636086210193">
        <ele>146</ele>
      </trkpt>
      <trkpt lat="49.77478542818998" lon="7.7010156399008283">
        <ele>147</ele>
      </trkpt>
      <trkpt lat="49.77479973297731" lon="7.7011033759298195">
        <ele>147</ele>
      </trkpt>
      <trkpt lat="49.77479973297731" lon="7.7011033759298195">
        <ele>147</ele>
      </trkpt>
      <trkpt lat="49.77484932290675" lon="7.7013942399389741">
        <ele>148</ele>
      </trkpt>
      <trkpt lat="49.77490749570858" lon="7.7017976349418351">
        <ele>150</ele>
      </trkpt>
      <trkpt lat="49.77490749570858" lon="7.7017976349418351">
        <ele>150</ele>
      </trkpt>
      <trkpt lat="49.77507343124167" lon="7.7014838832729433">
        <ele>156</ele>
      </trkpt>
      <trkpt lat="49.77513732595843" lon="7.7013456036620331">
        <ele>160</ele>
      </trkpt>
      <trkpt lat="49.77522887659738" lon="7.7009975205035364">
        <ele>165</ele>
      </trkpt>
      <trkpt lat="49.77535094411598" lon="7.7003814609956214">
        <ele>171</ele>
      </trkpt>
      <trkpt lat="49.77535571237842" lon="7.7002784665268056">
        <ele>172</ele>
      </trkpt>
      <trkpt lat="49.77535571237842" lon="7.7002784665268056">
        <ele>172</ele>
      </trkpt>
      <trkpt lat="49.7753404539386" lon="7.7000000000000082">
        <ele>171</ele>
      </trkpt>
      <trkpt lat="49.7753404539386" lon="7.6999999999999975">
        <ele>171</ele>
      </trkpt>
      <trkpt lat="49.77533854663362" lon="7.6999637612054146">
        <ele>170</ele>
      </trkpt>
      <trkpt lat="49.77542914362007" lon="7.6987440396719409">
        <ele>170</ele>
      </trkpt>
      <trkpt lat="49.77541483883274" lon="7.6982653061224466">
        <ele>169</ele>
      </trkpt>
      <trkpt lat="49.77537287812322" lon="7.6980040053404517">
        <ele>167</ele>
      </trkpt>
      <trkpt lat="49.77537287812322" lon="7.6980040053404517">
        <ele>167</ele>
      </trkpt>
      <trkpt lat="49.77532042723632" lon="7.6977560556933033">
        <ele>166</ele>
      </trkpt>
      <trkpt lat="49.77532042723632" lon="7.6977560556933033">
        <ele>166</ele>
      </trkpt>
      <trkpt lat="49.77525653251956" lon="7.6974871256913957">
        <ele>164</ele>
      </trkpt>
      <trkpt lat="49.7751659355331" lon="7.6970284188441713">
        <ele>164</ele>
      </trkpt>
      <trkpt lat="49.77508964333398" lon="7.6965630364295228">
        <ele>165</ele>
      </trkpt>
      <trkpt lat="49.77501144382988" lon="7.6961739462139978">
        <ele>166</ele>
      </trkpt>
      <trkpt lat="49.77501144382988" lon="7.6961739462139978">
        <ele>166</ele>
      </trkpt>
      <trkpt lat="49.77514686248332" lon="7.6963780278466505">
        <ele>165</ele>
      </trkpt>
      <trkpt lat="49.77536238794584" lon="7.6968596223536121">
        <ele>165</ele>
      </trkpt>
      <trkpt lat="49.77564276177762" lon="7.6972124737745542">
        <ele>170</ele>
      </trkpt>
      <trkpt lat="49.77596509631891" lon="7.6975386229258032">
        <ele>172</ele>
      </trkpt>
      <trkpt lat="49.77622735075339" lon="7.6979286667938185">
        <ele>170</ele>
      </trkpt>
      <trkpt lat="49.77645050543583" lon="7.6982805645622712">
        <ele>171</ele>
      </trkpt>
      <trkpt lat="49.77666030898342" lon="7.6987879076864365">
        <ele>179</ele>
      </trkpt>
      <trkpt lat="49.77682719816899" lon="7.6990940301354165">
        <ele>180</ele>
      </trkpt>
      <trkpt lat="49.77713332061798" lon="7.6995060080106787">
        <ele>178</ele>
      </trkpt>
      <trkpt lat="49.77735933625788" lon="7.6997224871256895">
        <ele>174</ele>
      </trkpt>
      <trkpt lat="49.77749094030136" lon="7.6999999999999975">
        <ele>174</ele>
      </trkpt>
      <trkpt lat="49.77749094030136" lon="7.7000000000000082">
        <ele>174</ele>
      </trkpt>
      <trkpt lat="49.77763780278467" lon="7.7003099370589441">
        <ele>173</ele>
      </trkpt>
      <trkpt lat="49.77772649246616" lon="7.7005521647911577">
        <ele>174</ele>
      </trkpt>
      <trkpt lat="49.77783425519742" lon="7.7007238222391843">
        <ele>173</ele>
      </trkpt>
      <trkpt lat="49.77809269502195" lon="7.7009879839786457">
        <ele>166</ele>
      </trkpt>
      <trkpt lat="49.77823288193783" lon="7.7010947930574174">
        <ele>162</ele>
      </trkpt>
      <trkpt lat="49.77836162502385" lon="7.7013112721724282">
        <ele>159</ele>
      </trkpt>
      <trkpt lat="49.77840263208088" lon="7.7016164409689187">
        <ele>160</ele>
      </trkpt>
      <trkpt lat="49.77844077818044" lon="7.7021447644478434">
        <ele>162</ele>
      </trkpt>
      <trkpt lat="49.7785142094221" lon="7.7025252717909671">
        <ele>162</ele>
      </trkpt>
      <trkpt lat="49.77859145527371" lon="7.7030068662979287">
        <ele>157</ele>
      </trkpt>
      <trkpt lat="49.77859145527371" lon="7.7032071333206256">
        <ele>157</ele>
      </trkpt>
      <trkpt lat="49.77858668701126" lon="7.7032662597749457">
        <ele>156</ele>
      </trkpt>
      <trkpt lat="49.77853518977685" lon="7.703497997329781">
        <ele>156</ele>
      </trkpt>
      <trkpt lat="49.77825195498761" lon="7.7041893953843301">
        <ele>158</ele>
      </trkpt>
      <trkpt lat="49.77825195498761" lon="7.7041893953843301">
        <ele>158</ele>
      </trkpt>
      <trkpt lat="49.77812893381653" lon="7.704387755102049">
        <ele>158</ele>
      </trkpt>
      <trkpt lat="49.77784474537479" lon="7.7046233072668402">
        <ele>161</ele>
      </trkpt>
      <trkpt lat="49.77784474537479" lon="7.7046233072668402">
        <ele>161</ele>
      </trkpt>
      <trkpt lat="49.7778266259775" lon="7.704663360671379">
        <ele>161</ele>
      </trkpt>
      <trkpt lat="49.77782185771506" lon="7.7047434674804585">
        <ele>160</ele>
      </trkpt>
      <trkpt lat="49.77787144764449" lon="7.7050104901773873">
        <ele>159</ele>
      </trkpt>
      <trkpt lat="49.77787144764449" lon="7.7050104901773873">
        <ele>159</ele>
      </trkpt>
      <trkpt lat="49.77790864009156" lon="7.7051926378027931">
        <ele>158</ele>
      </trkpt>
      <trkpt lat="49.7780965096319" lon="7.7058392141903571">
        <ele>151</ele>
      </trkpt>
      <trkpt lat="49.77832729353425" lon="7.7064257104711125">
        <ele>147</ele>
      </trkpt>
      <trkpt lat="49.77866488651537" lon="7.7072162883845206">
        <ele>141</ele>
      </trkpt>
      <trkpt lat="49.77922277322145" lon="7.7086944497425218">
        <ele>135</ele>
      </trkpt>
      <trkpt lat="49.77942208659166" lon="7.7091646004196148">
        <ele>134</ele>
      </trkpt>
      <trkpt lat="49.77952126645052" lon="7.7094716765210833">
        <ele>135</ele>
      </trkpt>
      <trkpt lat="49.77914266641237" lon="7.7099303833683086">
        <ele>135</ele>
      </trkpt>
      <trkpt lat="49.77876311272173" lon="7.7103318710661917">
        <ele>134</ele>
      </trkpt>
      <trkpt lat="49.7784703414076" lon="7.7106255960328136">
        <ele>134</ele>
      </trkpt>
      <trkpt lat="49.77763303452223" lon="7.7111253099370671">
        <ele>134</ele>
      </trkpt>
      <trkpt lat="49.77746709898914" lon="7.7111472439443149">
        <ele>134</ele>
      </trkpt>
      <trkpt lat="49.77721152012208" lon="7.7112178142285028">
        <ele>134</ele>
      </trkpt>
      <trkpt lat="49.77690444402061" lon="7.7112111386610795">
        <ele>135</ele>
      </trkpt>
      <trkpt lat="49.77583253862294" lon="7.7111567804692047">
        <ele>136</ele>
      </trkpt>
      <trkpt lat="49.77547682624453" lon="7.7111272172420451">
        <ele>136</ele>
      </trkpt>
      <trkpt lat="49.77528323478926" lon="7.7110604615678122">
        <ele>136</ele>
      </trkpt>
      <trkpt lat="49.77503337783713" lon="7.710804882700752">
        <ele>136</ele>
      </trkpt>
      <trkpt lat="49.77491321762351" lon="7.7106255960328136">
        <ele>136</ele>
      </trkpt>
      <trkpt lat="49.77479401106238" lon="7.7102870493992066">
        <ele>137</ele>
      </trkpt>
      <trkpt lat="49.77467575815374" lon="7.7098979591836816">
        <ele>138</ele>
      </trkpt>
      <trkpt lat="49.7745050543582" lon="7.7092599656685188">
        <ele>138</ele>
      </trkpt>
      <trkpt lat="49.77435914552738" lon="7.7085971771886408">
        <ele>137</ele>
      </trkpt>
      <trkpt lat="49.77431146290293" lon="7.7081966431432463">
        <ele>136</ele>
      </trkpt>
      <trkpt lat="49.77430097272555" lon="7.7078533282471948">
        <ele>136</ele>
      </trkpt>
      <trkpt lat="49.77432958230022" lon="7.7076158687774257">
        <ele>136</ele>
      </trkpt>
      <trkpt lat="49.77443639137899" lon="7.7072401296967463">
        <ele>138</ele>
      </trkpt>
      <trkpt lat="49.77443639137899" lon="7.7072401296967463">
        <ele>138</ele>
      </trkpt>
      <trkpt lat="49.7744707228686" lon="7.7071581155826898">
        <ele>139</ele>
      </trkpt>
      <trkpt lat="49.77450600801069" lon="7.7070770551211218">
        <ele>140</ele>
      </trkpt>
      <trkpt lat="49.77457943925235" lon="7.7069588022124815">
        <ele>142</ele>
      </trkpt>
      <trkpt lat="49.77457943925235" lon="7.7069588022124815">
        <ele>142</ele>
      </trkpt>
      <trkpt lat="49.77485981308412" lon="7.7058563799351596">
        <ele>150</ele>
      </trkpt>
      <trkpt lat="49.77490177379364" lon="7.7045222201030024">
        <ele>152</ele>
      </trkpt>
      <trkpt lat="49.77490749570858" lon="7.7039853137516765">
        <ele>152</ele>
      </trkpt>
      <trkpt lat="49.77492752241084" lon="7.7034236124356363">
        <ele>152</ele>
      </trkpt>
      <trkpt lat="49.77493896624071" lon="7.7028342551974136">
        <ele>153</ele>
      </trkpt>
      <trkpt lat="49.77492561510586" lon="7.702255388136571">
        <ele>152</ele>
      </trkpt>
      <trkpt lat="49.77490749570858" lon="7.7017976349418351">
        <ele>150</ele>
      </trkpt>
      <trkpt lat="49.77484932290675" lon="7.7013942399389741">
        <ele>148</ele>
      </trkpt>
      <trkpt lat="49.77479973297731" lon="7.7011033759298195">
        <ele>147</ele>
      </trkpt>
      <trkpt lat="49.77479973297731" lon="7.7011033759298195">
        <ele>147</ele>
      </trkpt>
      <trkpt lat="49.77478542818998" lon="7.7010156399008283">
        <ele>147</ele>
      </trkpt>
      <trkpt lat="49.77470246042343" lon="7.700636086210193">
        <ele>146</ele>
      </trkpt>
      <trkpt lat="49.774522220103" lon="7.7001144382986917">
        <ele>144</ele>
      </trkpt>
      <trkpt lat="49.77447358382607" lon="7.7000000000000082">
        <ele>143</ele>
      </trkpt>
      <trkpt lat="49.77447358382607" lon="7.6999999999999975">
        <ele>143</ele>
      </trkpt>
      <trkpt lat="49.77445164981881" lon="7.6999485027655901">
        <ele>143</ele>
      </trkpt>
      <trkpt lat="49.77352183864201" lon="7.6983282471867227">
        <ele>132</ele>
      </trkpt>
      <trkpt lat="49.77332157161931" lon="7.6980307076101449">
        <ele>131</ele>
      </trkpt>
      <trkpt lat="49.77318615296587" lon="7.6979229448788837">
        <ele>132</ele>
      </trkpt>
      <trkpt lat="49.77299828342553" lon="7.6978228113675353">
        <ele>133</ele>
      </trkpt>
      <trkpt lat="49.77284283806982" lon="7.6977789433530397">
        <ele>134</ele>
      </trkpt>
      <trkpt lat="49.77256055693307" lon="7.6977407972534788">
        <ele>135</ele>
      </trkpt>
      <trkpt lat="49.77232691207325" lon="7.6977665458706825">
        <ele>135</ele>
      </trkpt>
      <trkpt lat="49.77216765210758" lon="7.6978542818996738">
        <ele>135</ele>
      </trkpt>
      <trkpt lat="49.77188537097083" lon="7.698077436582107">
        <ele>134</ele>
      </trkpt>
      <trkpt lat="49.77154300972727" lon="7.6983845126835755">
        <ele>133</ele>
      </trkpt>
      <trkpt lat="49.77133797444213" lon="7.6987201983597151">
        <ele>134</ele>
      </trkpt>
      <trkpt lat="49.77082300209805" lon="7.6999551783330134">
        <ele>136</ele>
      </trkpt>
      <trkpt lat="49.77079916078582" lon="7.6999999999999975">
        <ele>136</ele>
      </trkpt>
      <trkpt lat="49.77079916078582" lon="7.7000000000000082">
        <ele>136</ele>
      </trkpt>
      <trkpt lat="49.77069998092696" lon="7.7001850085828805">
        <ele>137</ele>
      </trkpt>
      <trkpt lat="49.77052736982645" lon="7.7004243753576276">
        <ele>138</ele>
      </trkpt>
      <trkpt lat="49.7700963189014" lon="7.7009221819569031">
        <ele>140</ele>
      </trkpt>
      <trkpt lat="49.7700963189014" lon="7.7009221819569031">
        <ele>140</ele>
      </trkpt>
      <trkpt lat="49.77005912645433" lon="7.7009698645813547">
        <ele>140</ele>
      </trkpt>
      <trkpt lat="49.76995422468054" lon="7.7010642761777683">
        <ele>140</ele>
      </trkpt>
      <trkpt lat="49.76951935914554" lon="7.7016288384512759">
        <ele>142</ele>
      </trkpt>
      <trkpt lat="49.76951935914554" lon="7.7016288384512759">
        <ele>142</ele>
      </trkpt>
      <trkpt lat="49.76971095337388" lon="7.7021229498822557">
        <ele>141</ele>
      </trkpt>
      <trkpt lat="49.76971008964335" lon="7.7021237840930841">
        <ele>141</ele>
      </trkpt>
      <trkpt lat="49.76959851230212" lon="7.7022315468243452">
        <ele>142</ele>
      </trkpt>
      <trkpt lat="49.76940587449934" lon="7.7030688537097163">
        <ele>142</ele>
      </trkpt>
      <trkpt lat="49.76932958230022" lon="7.7033702078962509">
        <ele>142</ele>
      </trkpt>
      <trkpt lat="49.76932958230022" lon="7.7033702078962509">
        <ele>142</ele>
      </trkpt>
      <trkpt lat="49.76932949586382" lon="7.703370171160782">
        <ele>142</ele>
      </trkpt>
    </trkseg>
  </trk>
</gpx>